[{"OBJECT_NAME":"STARLINK-3579","OBJECT_ID":"2022-022AT","EPOCH":"2026-03-09T22:27:05.868576","MEAN_MOTION":15.0884886,"ECCENTRICITY":0.00014543,"INCLINATION":53.2192,"RA_OF_ASC_NODE":358.0164,"ARG_OF_PERICENTER":85.7274,"MEAN_ANOMALY":274.3885,"EPHEMERIS_TYPE":0,"CLASSIFICATION_TYPE":"U","NORAD_CAT_ID":51893,"ELEMENT_SET_NO":999,"REV_AT_EPOCH":22334,"BSTAR":-0.0001560884,"MEAN_MOTION_DOT":-2.772e-5,"MEAN_MOTION_DDOT":0},{"OBJECT_NAME":"STARLING 3","OBJECT_ID":"2023-100D","EPOCH":"2026-03-09T22:41:57.048288","MEAN_MOTION":15.11145977,"ECCENTRICITY":0.00066311,"INCLINATION":99.5096,"RA_OF_ASC_NODE":65.6477,"ARG_OF_PERICENTER":76.1122,"MEAN_ANOMALY":284.0839,"EPHEMERIS_TYPE":0,"CLASSIFICATION_TYPE":"U","NORAD_CAT_ID":57389,"ELEMENT_SET_NO":999,"REV_AT_EPOCH":14507,"BSTAR":0.00051487914,"MEAN_MOTION_DOT":8.551e-5,"MEAN_MOTION_DDOT":0}]
